[{"OBJECT_NAME":"IRIDIUM 120","OBJECT_ID":"2017-039C","EPOCH":"2026-03-09T21:12:27.197568","MEAN_MOTION":14.34217759,"ECCENTRICITY":0.00021079,"INCLINATION":86.4016,"RA_OF_ASC_NODE":3.4651,"ARG_OF_PERICENTER":89.0553,"MEAN_ANOMALY":271.0885,"EPHEMERIS_TYPE":0,"CLASSIFICATION_TYPE":"U","NORAD_CAT_ID":42805,"ELEMENT_SET_NO":999,"REV_AT_EPOCH":45694,"BSTAR":1.4790436e-5,"MEAN_MOTION_DOT":6.1e-7,"MEAN_MOTION_DDOT":0},{"OBJECT_NAME":"CZ-6A DEB","OBJECT_ID":"2024-140YK","EPOCH":"2026-03-09T14:03:16.851744","MEAN_MOTION":14.27972697,"ECCENTRICITY":0.0050023,"INCLINATION":88.9791,"RA_OF_ASC_NODE":283.9513,"ARG_OF_PERICENTER":53.4751,"MEAN_ANOMALY":307.1034,"EPHEMERIS_TYPE":0,"CLASSIFICATION_TYPE":"U","NORAD_CAT_ID":61418,"ELEMENT_SET_NO":999,"REV_AT_EPOCH":8151,"BSTAR":0.00043496,"MEAN_MOTION_DOT":1.107e-5,"MEAN_MOTION_DDOT":0}]
